{"fetched_at":"2026-07-22T07:10:05.398Z","source":"https://celestrak.org/NORAD/elements/gp.php?NAME=SPACEMOBILE&FORMAT=JSON","constellation":"ast-spacemobile","records":[{"OBJECT_NAME":"SPACEMOBILE-003","OBJECT_ID":"2024-163A","EPOCH":"2026-07-20T23:55:26.289984","CLASSIFICATION_TYPE":"U","MEAN_MOTION":15.20726769,"ECCENTRICITY":0.00041577,"INCLINATION":52.9677,"RA_OF_ASC_NODE":153.9638,"ARG_OF_PERICENTER":213.386,"MEAN_ANOMALY":146.6872,"EPHEMERIS_TYPE":0,"NORAD_CAT_ID":61045,"ELEMENT_SET_NO":999,"REV_AT_EPOCH":10291,"BSTAR":0.00010564199,"MEAN_MOTION_DOT":0.00002028,"MEAN_MOTION_DDOT":0},{"OBJECT_NAME":"SPACEMOBILE-005","OBJECT_ID":"2024-163B","EPOCH":"2026-07-21T13:43:22.504800","CLASSIFICATION_TYPE":"U","MEAN_MOTION":15.20673022,"ECCENTRICITY":0.00085506,"INCLINATION":52.9742,"RA_OF_ASC_NODE":151.2755,"ARG_OF_PERICENTER":213.5798,"MEAN_ANOMALY":146.4656,"EPHEMERIS_TYPE":0,"NORAD_CAT_ID":61046,"ELEMENT_SET_NO":999,"REV_AT_EPOCH":10299,"BSTAR":-0.00014344349,"MEAN_MOTION_DOT":-0.00003521,"MEAN_MOTION_DDOT":0},{"OBJECT_NAME":"SPACEMOBILE-001","OBJECT_ID":"2024-163C","EPOCH":"2026-07-20T06:08:11.084640","CLASSIFICATION_TYPE":"U","MEAN_MOTION":15.20700764,"ECCENTRICITY":0.00069537,"INCLINATION":52.971,"RA_OF_ASC_NODE":157.0335,"ARG_OF_PERICENTER":209.4162,"MEAN_ANOMALY":150.6442,"EPHEMERIS_TYPE":0,"NORAD_CAT_ID":61047,"ELEMENT_SET_NO":999,"REV_AT_EPOCH":10279,"BSTAR":0.000008659876,"MEAN_MOTION_DOT":-0.00000135,"MEAN_MOTION_DDOT":0},{"OBJECT_NAME":"SPACEMOBILE-002","OBJECT_ID":"2024-163D","EPOCH":"2026-07-21T03:50:20.452416","CLASSIFICATION_TYPE":"U","MEAN_MOTION":15.20486096,"ECCENTRICITY":0.00043548,"INCLINATION":52.9778,"RA_OF_ASC_NODE":152.9178,"ARG_OF_PERICENTER":211.0455,"MEAN_ANOMALY":149.0283,"EPHEMERIS_TYPE":0,"NORAD_CAT_ID":61048,"ELEMENT_SET_NO":999,"REV_AT_EPOCH":10293,"BSTAR":0.00068857266,"MEAN_MOTION_DOT":0.00014941,"MEAN_MOTION_DDOT":0},{"OBJECT_NAME":"SPACEMOBILE-004","OBJECT_ID":"2024-163E","EPOCH":"2026-07-21T06:34:01.498944","CLASSIFICATION_TYPE":"U","MEAN_MOTION":15.20649512,"ECCENTRICITY":0.00051579,"INCLINATION":52.972,"RA_OF_ASC_NODE":152.1723,"ARG_OF_PERICENTER":251.3714,"MEAN_ANOMALY":108.672,"EPHEMERIS_TYPE":0,"NORAD_CAT_ID":61049,"ELEMENT_SET_NO":999,"REV_AT_EPOCH":10295,"BSTAR":0.0006885481,"MEAN_MOTION_DOT":0.00015015,"MEAN_MOTION_DDOT":0},{"OBJECT_NAME":"SPACEMOBILE-001 DEB","OBJECT_ID":"2024-163F","EPOCH":"2026-07-21T04:01:13.791072","CLASSIFICATION_TYPE":"U","MEAN_MOTION":15.35459804,"ECCENTRICITY":0.000574,"INCLINATION":52.9938,"RA_OF_ASC_NODE":119.4539,"ARG_OF_PERICENTER":275.4913,"MEAN_ANOMALY":84.5433,"EPHEMERIS_TYPE":0,"NORAD_CAT_ID":62369,"ELEMENT_SET_NO":999,"REV_AT_EPOCH":9172,"BSTAR":0.00022357419,"MEAN_MOTION_DOT":0.00007442,"MEAN_MOTION_DDOT":0},{"OBJECT_NAME":"SPACEMOBILE-002 DEB","OBJECT_ID":"2024-163G","EPOCH":"2026-07-21T01:07:43.339296","CLASSIFICATION_TYPE":"U","MEAN_MOTION":15.43968788,"ECCENTRICITY":0.00048213,"INCLINATION":52.9421,"RA_OF_ASC_NODE":103.7546,"ARG_OF_PERICENTER":307.9607,"MEAN_ANOMALY":52.0961,"EPHEMERIS_TYPE":0,"NORAD_CAT_ID":62370,"ELEMENT_SET_NO":999,"REV_AT_EPOCH":10359,"BSTAR":0.00032674162,"MEAN_MOTION_DOT":0.00014725,"MEAN_MOTION_DDOT":0},{"OBJECT_NAME":"SPACEMOBILE-003 DEB","OBJECT_ID":"2024-163H","EPOCH":"2026-07-21T03:42:13.105440","CLASSIFICATION_TYPE":"U","MEAN_MOTION":15.41714336,"ECCENTRICITY":0.0005455,"INCLINATION":52.9698,"RA_OF_ASC_NODE":110.2606,"ARG_OF_PERICENTER":258.9407,"MEAN_ANOMALY":101.0983,"EPHEMERIS_TYPE":0,"NORAD_CAT_ID":62371,"ELEMENT_SET_NO":999,"REV_AT_EPOCH":9712,"BSTAR":0.0003894707,"MEAN_MOTION_DOT":0.00016331,"MEAN_MOTION_DDOT":0},{"OBJECT_NAME":"SPACEMOBILE-004 DEB","OBJECT_ID":"2024-163J","EPOCH":"2026-07-21T10:27:09.903456","CLASSIFICATION_TYPE":"U","MEAN_MOTION":15.40878684,"ECCENTRICITY":0.00028784,"INCLINATION":52.9839,"RA_OF_ASC_NODE":108.6263,"ARG_OF_PERICENTER":290.7677,"MEAN_ANOMALY":69.3017,"EPHEMERIS_TYPE":0,"NORAD_CAT_ID":62372,"ELEMENT_SET_NO":999,"REV_AT_EPOCH":10023,"BSTAR":0.00028393223,"MEAN_MOTION_DOT":0.00011453,"MEAN_MOTION_DDOT":0},{"OBJECT_NAME":"SPACEMOBILE-005 DEB","OBJECT_ID":"2024-163K","EPOCH":"2026-07-21T04:37:20.493984","CLASSIFICATION_TYPE":"U","MEAN_MOTION":15.34732146,"ECCENTRICITY":0.00054959,"INCLINATION":52.9741,"RA_OF_ASC_NODE":124.2544,"ARG_OF_PERICENTER":252.283,"MEAN_ANOMALY":107.7571,"EPHEMERIS_TYPE":0,"NORAD_CAT_ID":62373,"ELEMENT_SET_NO":999,"REV_AT_EPOCH":10334,"BSTAR":0.00025507245,"MEAN_MOTION_DOT":0.00008344,"MEAN_MOTION_DDOT":0},{"OBJECT_NAME":"SPACEMOBILE-006","OBJECT_ID":"2025-309A","EPOCH":"2026-07-21T04:47:25.938528","CLASSIFICATION_TYPE":"U","MEAN_MOTION":15.18677771,"ECCENTRICITY":0.00095043,"INCLINATION":52.9948,"RA_OF_ASC_NODE":175.8266,"ARG_OF_PERICENTER":235.7559,"MEAN_ANOMALY":124.2535,"EPHEMERIS_TYPE":0,"NORAD_CAT_ID":67232,"ELEMENT_SET_NO":999,"REV_AT_EPOCH":3176,"BSTAR":0.00012567808,"MEAN_MOTION_DOT":0.00002319,"MEAN_MOTION_DDOT":0},{"OBJECT_NAME":"SPACEMOBILE-008","OBJECT_ID":"2026-139A","EPOCH":"2026-07-21T10:17:49.411968","CLASSIFICATION_TYPE":"U","MEAN_MOTION":15.1280929,"ECCENTRICITY":0.00052979,"INCLINATION":52.9953,"RA_OF_ASC_NODE":107.1053,"ARG_OF_PERICENTER":71.2526,"MEAN_ANOMALY":288.904,"EPHEMERIS_TYPE":0,"NORAD_CAT_ID":69589,"ELEMENT_SET_NO":999,"REV_AT_EPOCH":516,"BSTAR":0.00003492402,"MEAN_MOTION_DOT":0.00000319,"MEAN_MOTION_DDOT":0},{"OBJECT_NAME":"SPACEMOBILE-009","OBJECT_ID":"2026-139B","EPOCH":"2026-07-21T10:21:16.343424","CLASSIFICATION_TYPE":"U","MEAN_MOTION":15.12709273,"ECCENTRICITY":0.00055674,"INCLINATION":52.9944,"RA_OF_ASC_NODE":107.1141,"ARG_OF_PERICENTER":67.5981,"MEAN_ANOMALY":292.5599,"EPHEMERIS_TYPE":0,"NORAD_CAT_ID":69590,"ELEMENT_SET_NO":999,"REV_AT_EPOCH":516,"BSTAR":0.000085768322,"MEAN_MOTION_DOT":0.00001219,"MEAN_MOTION_DDOT":0},{"OBJECT_NAME":"SPACEMOBILE-010","OBJECT_ID":"2026-139C","EPOCH":"2026-07-21T10:26:43.642176","CLASSIFICATION_TYPE":"U","MEAN_MOTION":15.12546197,"ECCENTRICITY":0.00055616,"INCLINATION":52.995,"RA_OF_ASC_NODE":107.1407,"ARG_OF_PERICENTER":60.2042,"MEAN_ANOMALY":299.9501,"EPHEMERIS_TYPE":0,"NORAD_CAT_ID":69591,"ELEMENT_SET_NO":999,"REV_AT_EPOCH":517,"BSTAR":0.000083596792,"MEAN_MOTION_DOT":0.00001174,"MEAN_MOTION_DDOT":0}]}
